MALLIGYONG-1            
1 58400U 23179A   23342.91457832  .00004536  00000+0  20475-3 0  9990
2 58400  97.4270 227.4630 0014666 212.9323 147.1001 15.21404659  2639
